ECHOSTAR 19             
1 41893U 16079A   24269.22404814 -.00000153  00000+0  00000+0 0  9994
2 41893   0.0145 125.9450 0001610  70.5533 151.5907  1.00271980 28381
JCSAT-110A (JCSAT-15)   
1 41903U 16082A   24269.26478017 -.00000366  00000+0  00000+0 0  9996
2 41903   0.0181 164.4219 0001132  63.9818 341.5595  1.00272428 28444
STAR ONE D1             
1 41904U 16082B   24269.51647476 -.00000226  00000+0  00000+0 0  9997
2 41904   0.0098 130.1726 0001656  53.7184 282.8769  1.00269792 28461
TJS-2                   
1 41911U 17001A   24269.90010385 -.00000023  00000+0  00000+0 0  9998
2 41911   0.0525 103.7713 0000959 147.3371 144.6196  1.00273504 28419
SBIRS GEO-4 (USA 273)   
1 41937U 17004A   24269.56046861 -.00000159  00000+0  00000+0 0  9999
2 41937   1.4273   7.4196 0002052 194.6902 267.7242  1.00271761 28285
HISPASAT 36W-1          
1 41942U 17006A   24269.87968696 -.00000260  00000+0  00000+0 0  9993
2 41942   0.0081  11.9753 0001012 165.5352 108.3618  1.00271311 27909
TELKOM 3S               
1 41944U 17007A   24269.91026885 -.00000379  00000+0  00000+0 0  9997
2 41944   0.0202 156.0078 0002732  52.1598 242.7336  1.00267709 27827
INTELSAT 32E (IS-32E)   
1 41945U 17007B   24269.87829687 -.00000285  00000+0  00000+0 0  9990
2 41945   0.0134 122.1515 0000253  94.9507  61.0743  1.00269424 27912
ECHOSTAR 23             
1 42070U 17014A   24269.57902659 -.00000072  00000+0  00000+0 0  9990
2 42070   0.0216 163.0040 0002041  19.9981 280.4288  1.00269978 27612
WGS F9 (USA 275)        
1 42075U 17016A   24269.68452385 -.00000112  00000+0  00000+0 0  9990
2 42075   0.0376 349.9397 0000731 271.1967 338.2729  1.00270615 27616
SES-10                  
1 42432U 17017A   24269.87360534 -.00000288  00000+0  00000+0 0  9997
2 42432   0.0300  54.2188 0002793 144.0736  54.4758  1.00269236 27432
CHINASAT 16 (SJ-13)     
1 42662U 17018A   24269.85153435 -.00000368  00000+0  00000+0 0  9990
2 42662   0.0459  95.7580 0007021 126.9784 199.4663  1.00268696 27411
KOREASAT 7              
1 42691U 17023A   24269.98142385 -.00000378  00000+0  00000+0 0  9995
2 42691   0.0225 341.0819 0002044 232.9802 260.4350  1.00270309 27130
SGDC                    
1 42692U 17023B   24268.19810721 -.00000263  00000+0  00000+0 0  9997
2 42692   0.0379  78.4931 0002647 126.9715 154.5309  1.00271701 27089
GSAT-9                  
1 42695U 17024A   24270.04919053 -.00000302  00000+0  00000+0 0  9990
2 42695   0.0193 218.7814 0002361 328.6258 292.9909  1.00269220 27122
INMARSAT 5-F4           
1 42698U 17025A   24269.79771824  .00000059  00000+0  00000+0 0  9994
2 42698   0.0207 161.9374 0000705  64.4105 122.4356  1.00269013 26961
SES-15                  
1 42709U 17026A   24269.53062417  .00000045  00000+0  00000+0 0  9996
2 42709   0.0403  15.4406 0000423 203.3423 207.9180  1.00269000  1126
QZS-2 (MICHIBIKI-2)     
1 42738U 17028A   24267.83882727 -.00000173  00000+0  00000+0 0  9998
2 42738  40.4218 252.3393 0748340 270.4728 282.6476  1.00258480  1293
VIASAT-2                
1 42740U 17029A   24269.80144432 -.00000281  00000+0  00000+0 0  9995
2 42740   0.0185 209.7061 0000370  58.5946 315.4344  1.00272058 26888
EUTELSAT 172B           
1 42741U 17029B   24269.32966060 -.00000021  00000+0  00000+0 0  9994
2 42741   0.0109 193.8716 0000184 118.1013 343.3481  1.00271638 27411
GSAT-19                 
1 42747U 17031A   24269.24215979  .00000110  00000+0  00000+0 0  9998
2 42747   0.0276  94.5801 0002416  37.4404   7.5912  1.00269949 26825
ECHOSTAR 21             
1 42749U 17032A   24269.88889627  .00000049  00000+0  00000+0 0  9999
2 42749   2.3664 322.9264 0002544 234.6858 137.8475  1.00270961 26805
BULGARIASAT-1           
1 42801U 17038A   24270.08105039 -.00000005  00000+0  00000+0 0  9999
2 42801   0.0368 104.2696 0002684  82.3200 209.8760  1.00271657 26602
HELLAS-SAT 3            
1 42814U 17040A   24269.91785519  .00000136  00000+0  00000+0 0  9997
2 42814   0.0775  36.4507 0000972  85.1479 253.0331  1.00272398 26497
GSAT-17                 
1 42815U 17040B   24269.89910604 -.00000274  00000+0  00000+0 0  9994
2 42815   0.0226  94.6429 0005324 152.0983 175.6306  1.00271041 26471
INTELSAT 35E (IS-35E)   
1 42818U 17041A   24269.88003448 -.00000254  00000+0  00000+0 0  9994
2 42818   0.0172 151.2189 0001736  39.9951  96.2659  1.00271114 26502
COSMOS 2520             
1 42907U 17046A   24269.91785519  .00000121  00000+0  00000+0 0  9990
2 42907   0.0250 117.7411 0000237  87.1007 175.8176  1.00273241 26089
TDRS 13                 
1 42915U 17047A   24269.88455226 -.00000113  00000+0  00000+0 0  9997
2 42915   3.5703 346.8345 0014693 129.8542 195.5254  1.00272169 26038
QZS-3 (MICHIBIKI-3)     
1 42917U 17048A   24269.84054049 -.00000364  00000+0  00000+0 0  9992
2 42917   0.0738 138.0083 0002348  49.0987 247.6076  1.00267325 25948
AMAZONAS 5              
1 42934U 17053A   24268.46395535 -.00000296  00000+0  00000+0 0  9996
2 42934   0.0447 343.6235 0002836 248.1497 238.0227  1.00269902 25728
ASIASAT 9               
1 42942U 17057A   24269.98264019 -.00000376  00000+0  00000+0 0  9998
2 42942   0.0107 197.0828 0001947 344.0971 299.9661  1.00270848 25633
INTELSAT 37E (IS-37E)   
1 42950U 17059A   24270.21013201 -.00000157  00000+0  00000+0 0  9999
2 42950   0.0232 164.7741 0002731  30.5291 227.8435  1.00269854 25735
BSAT-4A                 
1 42951U 17059B   24269.26504080 -.00000366  00000+0  00000+0 0  9995
2 42951   0.0558  50.5352 0000777  68.0905  91.2130  1.00271928 25485
QZS-4 (MICHIBIKI-4)     
1 42965U 17062A   24269.53799604 -.00000347  00000+0  00000+0 0  9991
2 42965  40.4668 351.5203 0751692 269.7633  77.3685  1.00274289 25490
SES-11 (ECHOSTAR 105)   
1 42967U 17063A   24269.57998227 -.00000105  00000+0  00000+0 0  9992
2 42967   0.0185 279.2739 0002960 287.0601 262.4079  1.00272108 25417
KOREASAT 5A             
1 42984U 17067A   24269.90931316 -.00000374  00000+0  00000+0 0  9996
2 42984   0.0140 177.9510 0001777  35.1576 232.6002  1.00267481 25217
ALCOMSAT 1              
1 43039U 17078A   24269.88194584 -.00000202  00000+0  00000+0 0  9995
2 43039   0.0298 245.7377 0002720 315.8529  96.3087  1.00271862 24982
SBIRS GEO-3 (USA 282)   
1 43162U 18009A   24270.14127743  .00000113  00000+0  00000+0 0  9991
2 43162   2.2575 339.8597 0001984 225.0813  51.9522  1.00272486 24534
AL YAH 3                
1 43174U 18012A   24269.88290153 -.00000171  00000+0  00000+0 0  9998
2 43174   0.0168 219.7433 0001954 349.7965  93.3710  1.00271681 24530
SES-14                  
1 43175U 18012B   24269.73437267 -.00000294  00000+0  00000+0 0  9998
2 43175   0.0135 355.3212 0001105 198.7229  27.8651  1.00270593   711
GOES 17                 
1 43226U 18022A   24270.15213748 -.00000107  00000+0  00000+0 0  9993
2 43226   0.0401  18.6231 0002631 202.6536  94.2421  1.00271592 24129
HISPASAT 30W-6          
1 43228U 18023A   24269.88090329 -.00000232  00000+0  00000+0 0  9991
2 43228   0.0498  34.1644 0002499 141.0687 117.0939  1.00271277 24109
SUPERBIRD-B3            
1 43271U 18033A   24269.84757779 -.00000108  00000+0  00000+0 0  9997
2 43271   0.0143 202.3511 0001239 334.4314 295.5063  1.00270908 23752
HYLAS 4                 
1 43272U 18033B   24269.88020824 -.00000249  00000+0  00000+0 0  9992
2 43272   0.0678 268.3935 0001428 315.2471  64.9391  1.00272286 23763
IRNSS-1I                
1 43286U 18035A   24269.06091204  .00000082  00000+0  00000+0 0  9993
2 43286  29.3414  84.0472 0020492 178.8252 178.5284  1.00275869 23753
USA 283                 
1 43339U 18036A   24268.52945241 -.00000331  00000+0  00000+0 0  9990
2 43339   0.0128 184.1181 0000005 226.5843 277.8405  1.00269236  1085
COSMOS 2526             
1 43432U 18037A   24269.46924321 -.00000360  00000+0  00000+0 0  9997
2 43432   0.0239 124.5944 0000308 189.7431 347.4376  1.00268409 23644
APSTAR-6C               
1 43450U 18041A   24269.84201744 -.00000334  00000+0  00000+0 0  9992
2 43450   0.0435 348.1454 0003482 278.7280 175.4107  1.00271924 23499
BANGABANDHUSAT-1        
1 43463U 18044A   24269.98203203 -.00000378  00000+0  00000+0 0  9994
2 43463   0.0175 168.0138 0002550  39.2913 270.6021  1.00270056 23421
SES-12                  
1 43488U 18049A   24269.59077046 -.00000285  00000+0  00000+0 0  9994
2 43488   0.0308  44.0198 0002262 200.3795  68.1718  1.00270621 23100
FENGYUN 2H              
1 43491U 18050A   24269.90262337 -.00000146  00000+0  00000+0 0  9990
2 43491   1.4010  86.3300 0001676 125.0676 198.1574  1.00269933 23122
BEIDOU-2 IGSO-7         
1 43539U 18057A   24269.37898712 -.00000163  00000+0  00000+0 0  9992
2 43539  55.1475 168.5167 0078273 233.4100 212.2212  1.00281359 22822
TELSTAR 19V             
1 43562U 18059A   24269.87438726 -.00000295  00000+0  00000+0 0  9996
2 43562   0.0193 184.8658 0002823 340.1124  91.9793  1.00270982 22837
TELKOM 4 (MERAH PUTIH)  
1 43587U 18064A   24269.90466042 -.00000360  00000+0  00000+0 0  9998
2 43587   0.0206 153.7495 0002013  69.5730 215.5582  1.00266973 22564
TELSTAR 18V             
1 43611U 18069A   24269.84279938 -.00000310  00000+0  00000+0 0  9995
2 43611   0.0219 170.1006 0002003  18.1364 258.3179  1.00268718 22318
AZERSPACE 2 (IS-38)     
1 43632U 18074A   24269.91785519  .00000120  00000+0  00000+0 0  9997
2 43632   0.0179 155.5198 0001530  47.0878 178.1412  1.00271762 22132
HORIZONS-3E             
1 43633U 18074B   24269.84896788 -.00000046  00000+0  00000+0 0  9999
2 43633   0.0157 251.4269 0001088  22.2536 206.1279  1.00271753 22030
AEHF-4 (USA 288)        
1 43651U 18079A   24270.15952230 -.00000291  00000+0  00000+0 0  9997
2 43651   1.6498 333.7354 0052273   9.6615  11.9603  1.00273383 21980
BEIDOU-3 G1             
1 43683U 18085A   24269.84314691 -.00000294  00000+0  00000+0 0  9999
2 43683   2.4357 105.8774 0002157  37.9142 304.9063  1.00269572 21741
